2025-292H               
1 67000U 25292H   26005.27513845  .00009548  00000+0  66967-3 0  9993
2 67000  97.6561  82.6327 0015234 194.3640 165.7155 15.05302392  3800
2025-292J               
1 67001U 25292J   26005.15276458  .00008514  00000+0  60815-3 0  9995
2 67001  97.6534  82.4790 0015676 186.2000 173.9035 15.04646521  3917
ZK-1A R/B               
1 67002U 25292K   26005.15921866  .00169031  10177-4  70837-3 0  9994
2 67002  97.7177  84.9409 0192667 279.1946  78.7563 15.62774066  4046
STARLINK-35660          
1 67003U 25293A   26005.09259471  .00092241  00000+0  14821-2 0  9992
2 67003  69.9982 257.5314 0003696 272.9458  87.1306 15.52566254  5291
STARLINK-35913          
1 67004U 25293B   26005.09225155  .00079647  00000+0  12824-2 0  9991
2 67004  69.9982 257.5294 0003447 269.1620  90.9171 15.52561731  5299
STARLINK-36148          
1 67005U 25293C   26005.00001157 -.00046699  00000+0 -76032-3 0  9992
2 67005  69.9998 257.7797 0003417 272.6655 293.9607 15.52535909  3892
STARLINK-36156          
1 67006U 25293D   26005.09156512  .00078955  00000+0  12714-2 0  9992
2 67006  69.9982 257.5269 0003066 263.2725  96.8113 15.52562385  5298
STARLINK-36123          
1 67007U 25293E   26005.02729560 -.02589470  00000+0 -52873-1 0  9997
2 67007  69.9985 257.7043 0017752 343.9001  16.1618 15.49291729  5285
STARLINK-36163          
1 67008U 25293F   26005.09088032  .00082079  00000+0  13212-2 0  9991
2 67008  69.9980 257.5237 0003275 266.5115  93.5697 15.52560907  5293
STARLINK-36118          
1 67009U 25293G   26005.09053681  .00083095  00000+0  13374-2 0  9992
2 67009  69.9981 257.5220 0003575 269.2376  90.8402 15.52557782  5290
STARLINK-36189          
1 67010U 25293H   26005.08985092  .00077430  00000+0  12474-2 0  9999
2 67010  69.9984 257.5197 0003308 264.4780  95.6030 15.52556575  5297
STARLINK-36167          
1 67011U 25293J   26005.09019416  .00092383  00000+0  14846-2 0  9998
2 67011  69.9982 257.5209 0003354 268.2415  91.8388 15.52562804  5294
